{
  "type": "FeatureCollection",
  "features": [
    {
      "type": "Feature",
      "properties": {
        "norad_id": 41866,
        "name": "GOES 16",
        "group": "weather",
        "lat": 0.023170172676011666,
        "lon": 99.09490253703797,
        "alt_km": 35798.45790003818,
        "timestamp": "2025-12-21T07:34:34.187590+00:00",
        "meta_object_name": "GOES 16",
        "meta_object_id": "2016-071A",
        "meta_epoch": "2025-12-20T16:09:21.798144",
        "meta_mean_motion": 1.00272116,
        "meta_eccentricity": 0.00030227,
        "meta_inclination": 0.075,
        "meta_ra_of_asc_node": 102.2495,
        "meta_arg_of_pericenter": 163.5328,
        "meta_mean_anomaly": 321.3933,
        "meta_ephemeris_type": 0,
        "meta_classification_type": "U",
        "meta_norad_cat_id": 41866,
        "meta_element_set_no": 999,
        "meta_rev_at_epoch": 3331,
        "meta_bstar": 0,
        "meta_mean_motion_dot": -6.8e-07,
        "meta_mean_motion_ddot": 0,
        "tle_line1": "1 41866U 16071A   25354.67316896 -.00000068  00000+0  00000+0 0  9998",
        "tle_line2": "2 41866   0.0750 102.2495 0003022 163.5328 321.3933  1.00272116 33311"
      },
      "geometry": {
        "type": "Point",
        "coordinates": [
          99.09490253703797,
          0.023170172676011666
        ]
      }
    },
    {
      "type": "Feature",
      "properties": {
        "norad_id": 41882,
        "name": "FENGYUN 4A",
        "group": "weather",
        "lat": -1.7141795032170712,
        "lon": -32.47474023868642,
        "alt_km": 35791.96819770739,
        "timestamp": "2025-12-21T07:34:34.187601+00:00",
        "meta_object_name": "FENGYUN 4A",
        "meta_object_id": "2016-077A",
        "meta_epoch": "2025-12-19T13:51:06.687072",
        "meta_mean_motion": 1.00266581,
        "meta_eccentricity": 0.0004506,
        "meta_inclination": 1.866,
        "meta_ra_of_asc_node": 82.3247,
        "meta_arg_of_pericenter": 142.8816,
        "meta_mean_anomaly": 194.7423,
        "meta_ephemeris_type": 0,
        "meta_classification_type": "U",
        "meta_norad_cat_id": 41882,
        "meta_element_set_no": 999,
        "meta_rev_at_epoch": 3312,
        "meta_bstar": 0,
        "meta_mean_motion_dot": -3.34e-06,
        "meta_mean_motion_ddot": 0,
        "tle_line1": "1 41882U 16077A   25353.57716073 -.00000334  00000+0  00000+0 0  9997",
        "tle_line2": "2 41882   1.8660  82.3247 0004506 142.8816 194.7423  1.00266581 33125"
      },
      "geometry": {
        "type": "Point",
        "coordinates": [
          -32.47474023868642,
          -1.7141795032170712
        ]
      }
    },
    {
      "type": "Feature",
      "properties": {
        "norad_id": 41884,
        "name": "CYGFM05",
        "group": "weather",
        "lat": -6.545310549543299,
        "lon": -18.352791391267452,
        "alt_km": 422.39736027003255,
        "timestamp": "2025-12-21T07:34:34.187611+00:00",
        "meta_object_name": "CYGFM05",
        "meta_object_id": "2016-078A",
        "meta_epoch": "2025-12-20T09:57:19.872576",
        "meta_mean_motion": 15.47904275,
        "meta_eccentricity": 0.00107959,
        "meta_inclination": 34.9606,
        "meta_ra_of_asc_node": 356.9859,
        "meta_arg_of_pericenter": 250.6925,
        "meta_mean_anomaly": 109.2629,
        "meta_ephemeris_type": 0,
        "meta_classification_type": "U",
        "meta_norad_cat_id": 41884,
        "meta_element_set_no": 999,
        "meta_rev_at_epoch": 50095,
        "meta_bstar": 0.00028174579,
        "meta_mean_motion_dot": 0.00015144,
        "meta_mean_motion_ddot": 0,
        "tle_line1": "1 41884U 16078A   25354.41481334  .00015144  00000+0  28175-3 0  9994",
        "tle_line2": "2 41884  34.9606 356.9859 0010795 250.6925 109.2629 15.47904275500953"
      },
      "geometry": {
        "type": "Point",
        "coordinates": [
          -18.352791391267452,
          -6.545310549543299
        ]
      }
    },
    {
      "type": "Feature",
      "properties": {
        "norad_id": 41885,
        "name": "CYGFM04",
        "group": "weather",
        "lat": -24.773064371730662,
        "lon": -75.76030789215231,
        "alt_km": 410.3700217202022,
        "timestamp": "2025-12-21T07:34:34.187621+00:00",
        "meta_object_name": "CYGFM04",
        "meta_object_id": "2016-078B",
        "meta_epoch": "2025-12-20T08:36:05.783328",
        "meta_mean_motion": 15.50664937,
        "meta_eccentricity": 0.00097019,
        "meta_inclination": 34.9357,
        "meta_ra_of_asc_node": 331.9095,
        "meta_arg_of_pericenter": 275.107,
        "meta_mean_anomaly": 84.8545,
        "meta_ephemeris_type": 0,
        "meta_classification_type": "U",
        "meta_norad_cat_id": 41885,
        "meta_element_set_no": 999,
        "meta_rev_at_epoch": 50112,
        "meta_bstar": 0.00030127254,
        "meta_mean_motion_dot": 0.0001786,
        "meta_mean_motion_ddot": 0,
        "tle_line1": "1 41885U 16078B   25354.35840027  .00017860  00000+0  30127-3 0  9993",
        "tle_line2": "2 41885  34.9357 331.9095 0009701 275.1070  84.8545 15.50664937501127"
      },
      "geometry": {
        "type": "Point",
        "coordinates": [
          -75.76030789215231,
          -24.773064371730662
        ]
      }
    },
    {
      "type": "Feature",
      "properties": {
        "norad_id": 41886,
        "name": "CYGFM02",
        "group": "weather",
        "lat": 5.229768340327697,
        "lon": -28.627783818024042,
        "alt_km": 408.02391722620723,
        "timestamp": "2025-12-21T07:34:34.187630+00:00",
        "meta_object_name": "CYGFM02",
        "meta_object_id": "2016-078C",
        "meta_epoch": "2025-12-20T08:22:53.365728",
        "meta_mean_motion": 15.52066402,
        "meta_eccentricity": 0.00113856,
        "meta_inclination": 34.9446,
        "meta_ra_of_asc_node": 330.1965,
        "meta_arg_of_pericenter": 275.5269,
        "meta_mean_anomaly": 84.4156,
        "meta_ephemeris_type": 0,
        "meta_classification_type": "U",
        "meta_norad_cat_id": 41886,
        "meta_element_set_no": 999,
        "meta_rev_at_epoch": 50125,
        "meta_bstar": 0.00030781322,
        "meta_mean_motion_dot": 0.00019209,
        "meta_mean_motion_ddot": 0,
        "tle_line1": "1 41886U 16078C   25354.34922877  .00019209  00000+0  30781-3 0  9992",
        "tle_line2": "2 41886  34.9446 330.1965 0011385 275.5269  84.4156 15.52066402501252"
      },
      "geometry": {
        "type": "Point",
        "coordinates": [
          -28.627783818024042,
          5.229768340327697
        ]
      }
    },
    {
      "type": "Feature",
      "properties": {
        "norad_id": 41887,
        "name": "CYGFM01",
        "group": "weather",
        "lat": 26.34777394638774,
        "lon": 38.56579982134108,
        "alt_km": 422.6702333269177,
        "timestamp": "2025-12-21T07:34:34.187639+00:00",
        "meta_object_name": "CYGFM01",
        "meta_object_id": "2016-078D",
        "meta_epoch": "2025-12-20T17:25:55.766496",
        "meta_mean_motion": 15.48500572,
        "meta_eccentricity": 0.00104885,
        "meta_inclination": 34.9437,
        "meta_ra_of_asc_node": 357.2428,
        "meta_arg_of_pericenter": 245.7557,
        "meta_mean_anomaly": 114.2069,
        "meta_ephemeris_type": 0,
        "meta_classification_type": "U",
        "meta_norad_cat_id": 41887,
        "meta_element_set_no": 999,
        "meta_rev_at_epoch": 50094,
        "meta_bstar": 0.00026989171,
        "meta_mean_motion_dot": 0.0001481,
        "meta_mean_motion_ddot": 0,
        "tle_line1": "1 41887U 16078D   25354.72633989  .00014810  00000+0  26989-3 0  9996",
        "tle_line2": "2 41887  34.9437 357.2428 0010488 245.7557 114.2069 15.48500572500945"
      },
      "geometry": {
        "type": "Point",
        "coordinates": [
          38.56579982134108,
          26.34777394638774
        ]
      }
    },
    {
      "type": "Feature",
      "properties": {
        "norad_id": 41888,
        "name": "CYGFM08",
        "group": "weather",
        "lat": 23.040956126036527,
        "lon": 118.75740831264862,
        "alt_km": 418.9137100195139,
        "timestamp": "2025-12-21T07:34:34.187661+00:00",
        "meta_object_name": "CYGFM08",
        "meta_object_id": "2016-078E",
        "meta_epoch": "2025-12-20T09:20:35.850048",
        "meta_mean_motion": 15.49716188,
        "meta_eccentricity": 0.00119728,
        "meta_inclination": 34.9468,
        "meta_ra_of_asc_node": 342.3498,
        "meta_arg_of_pericenter": 265.5444,
        "meta_mean_anomaly": 94.391,
        "meta_ephemeris_type": 0,
        "meta_classification_type": "U",
        "meta_norad_cat_id": 41888,
        "meta_element_set_no": 999,
        "meta_rev_at_epoch": 50112,
        "meta_bstar": 0.00029221283,
        "meta_mean_motion_dot": 0.00016759,
        "meta_mean_motion_ddot": 0,
        "tle_line1": "1 41888U 16078E   25354.38930382  .00016759  00000+0  29221-3 0  9992",
        "tle_line2": "2 41888  34.9468 342.3498 0011972 265.5444  94.3910 15.49716188501123"
      },
      "geometry": {
        "type": "Point",
        "coordinates": [
          118.75740831264862,
          23.040956126036527
        ]
      }
    }
  ]
}